{
  "type": "FeatureCollection",
  "features": [
    {
      "type": "Feature",
      "properties": {
        "norad_id": 37781,
        "name": "HAIYANG-2A",
        "group": "resource",
        "lat": 7.926350917577952,
        "lon": -178.01055723024714,
        "alt_km": 970.0916412809629,
        "timestamp": "2025-12-25T22:42:16.653222+00:00",
        "meta_object_name": "HAIYANG-2A",
        "meta_object_id": "2011-043A",
        "meta_epoch": "2025-12-25T18:23:27.396384",
        "meta_mean_motion": 13.78835935,
        "meta_eccentricity": 0.0001575,
        "meta_inclination": 99.338,
        "meta_ra_of_asc_node": 0.4998,
        "meta_arg_of_pericenter": 66.0475,
        "meta_mean_anomaly": 294.0842,
        "meta_ephemeris_type": 0,
        "meta_classification_type": "U",
        "meta_norad_cat_id": 37781,
        "meta_element_set_no": 999,
        "meta_rev_at_epoch": 72278,
        "meta_bstar": -8.3141e-05,
        "meta_mean_motion_dot": -1.29e-06,
        "meta_mean_motion_ddot": 0,
        "tle_line1": "1 37781U 11043A   25359.76628931 -.00000129  00000+0 -83141-4 0  9995",
        "tle_line2": "2 37781  99.3380   0.4998 0001575  66.0475 294.0842 13.78835935722783"
      },
      "geometry": {
        "type": "Point",
        "coordinates": [
          -178.01055723024714,
          7.926350917577952
        ]
      }
    },
    {
      "type": "Feature",
      "properties": {
        "norad_id": 37791,
        "name": "RASAT",
        "group": "resource",
        "lat": -16.717771307229196,
        "lon": -93.43318629895644,
        "alt_km": 687.4272731458132,
        "timestamp": "2025-12-25T22:42:16.653233+00:00",
        "meta_object_name": "RASAT",
        "meta_object_id": "2011-044D",
        "meta_epoch": "2025-12-25T19:03:53.841024",
        "meta_mean_motion": 14.6792851,
        "meta_eccentricity": 0.0021286,
        "meta_inclination": 98.0641,
        "meta_ra_of_asc_node": 88.858,
        "meta_arg_of_pericenter": 25.5001,
        "meta_mean_anomaly": 90.3004,
        "meta_ephemeris_type": 0,
        "meta_classification_type": "U",
        "meta_norad_cat_id": 37791,
        "meta_element_set_no": 999,
        "meta_rev_at_epoch": 76774,
        "meta_bstar": 0.00019111,
        "meta_mean_motion_dot": 1.048e-05,
        "meta_mean_motion_ddot": 0,
        "tle_line1": "1 37791U 11044D   25359.79437316  .00001048  00000+0  19111-3 0  9999",
        "tle_line2": "2 37791  98.0641  88.8580 0021286  25.5001  90.3004 14.67928510767746"
      },
      "geometry": {
        "type": "Point",
        "coordinates": [
          -93.43318629895644,
          -16.717771307229196
        ]
      }
    },
    {
      "type": "Feature",
      "properties": {
        "norad_id": 37841,
        "name": "SRMSAT",
        "group": "resource",
        "lat": 2.242763057631415,
        "lon": 34.21807900632799,
        "alt_km": 851.744640172531,
        "timestamp": "2025-12-25T22:42:16.653257+00:00",
        "meta_object_name": "SRMSAT",
        "meta_object_id": "2011-058D",
        "meta_epoch": "2025-12-25T10:55:52.472352",
        "meta_mean_motion": 14.11515651,
        "meta_eccentricity": 0.0011992,
        "meta_inclination": 19.9731,
        "meta_ra_of_asc_node": 30.9947,
        "meta_arg_of_pericenter": 92.4725,
        "meta_mean_anomaly": 296.1471,
        "meta_ephemeris_type": 0,
        "meta_classification_type": "U",
        "meta_norad_cat_id": 37841,
        "meta_element_set_no": 999,
        "meta_rev_at_epoch": 73324,
        "meta_bstar": 9.1991e-05,
        "meta_mean_motion_dot": 4.34e-06,
        "meta_mean_motion_ddot": 0,
        "tle_line1": "1 37841U 11058D   25359.45546843  .00000434  00000+0  91991-4 0  9994",
        "tle_line2": "2 37841  19.9731  30.9947 0011992  92.4725 296.1471 14.11515651733247"
      },
      "geometry": {
        "type": "Point",
        "coordinates": [
          34.21807900632799,
          2.242763057631415
        ]
      }
    },
    {
      "type": "Feature",
      "properties": {
        "norad_id": 38012,
        "name": "PLEIADES 1A",
        "group": "resource",
        "lat": -81.58380264641937,
        "lon": 176.04018920646934,
        "alt_km": 705.8794312101527,
        "timestamp": "2025-12-25T22:42:16.653270+00:00",
        "meta_object_name": "PLEIADES 1A",
        "meta_object_id": "2011-076F",
        "meta_epoch": "2025-12-25T18:41:33.937728",
        "meta_mean_motion": 14.58573483,
        "meta_eccentricity": 0.0001084,
        "meta_inclination": 98.1805,
        "meta_ra_of_asc_node": 72.3454,
        "meta_arg_of_pericenter": 75.9421,
        "meta_mean_anomaly": 34.8739,
        "meta_ephemeris_type": 0,
        "meta_classification_type": "U",
        "meta_norad_cat_id": 38012,
        "meta_element_set_no": 999,
        "meta_rev_at_epoch": 74671,
        "meta_bstar": 0.00012306,
        "meta_mean_motion_dot": 5.27e-06,
        "meta_mean_motion_ddot": 0,
        "tle_line1": "1 38012U 11076F   25359.77886502  .00000527  00000+0  12306-3 0  9994",
        "tle_line2": "2 38012  98.1805  72.3454 0001084  75.9421  34.8739 14.58573483746710"
      },
      "geometry": {
        "type": "Point",
        "coordinates": [
          176.04018920646934,
          -81.58380264641937
        ]
      }
    },
    {
      "type": "Feature",
      "properties": {
        "norad_id": 38038,
        "name": "ZIYUAN 1-02C (ZY 1-02C)",
        "group": "resource",
        "lat": -76.54928556282191,
        "lon": 104.04248836303982,
        "alt_km": 777.7325563686645,
        "timestamp": "2025-12-25T22:42:16.653281+00:00",
        "meta_object_name": "ZIYUAN 1-02C (ZY 1-02C)",
        "meta_object_id": "2011-079A",
        "meta_epoch": "2025-12-25T18:42:11.816352",
        "meta_mean_motion": 14.38026261,
        "meta_eccentricity": 0.0007557,
        "meta_inclination": 98.4313,
        "meta_ra_of_asc_node": 65.5516,
        "meta_arg_of_pericenter": 104.3928,
        "meta_mean_anomaly": 33.533,
        "meta_ephemeris_type": 0,
        "meta_classification_type": "U",
        "meta_norad_cat_id": 38038,
        "meta_element_set_no": 999,
        "meta_rev_at_epoch": 73428,
        "meta_bstar": 0.00017721,
        "meta_mean_motion_dot": 4.93e-06,
        "meta_mean_motion_ddot": 0,
        "tle_line1": "1 38038U 11079A   25359.77930343  .00000493  00000+0  17721-3 0  9996",
        "tle_line2": "2 38038  98.4313  65.5516 0007557 104.3928  33.5330 14.38026261734285"
      },
      "geometry": {
        "type": "Point",
        "coordinates": [
          104.04248836303982,
          -76.54928556282191
        ]
      }
    },
    {
      "type": "Feature",
      "properties": {
        "norad_id": 38338,
        "name": "ARIRANG-3 (KOMPSAT-3)",
        "group": "resource",
        "lat": -44.119614383912854,
        "lon": -37.19143616403132,
        "alt_km": 691.2611914817644,
        "timestamp": "2025-12-25T22:42:16.653291+00:00",
        "meta_object_name": "ARIRANG-3 (KOMPSAT-3)",
        "meta_object_id": "2012-025B",
        "meta_epoch": "2025-12-25T17:58:48.370944",
        "meta_mean_motion": 14.6172932,
        "meta_eccentricity": 0.0004685,
        "meta_inclination": 98.3341,
        "meta_ra_of_asc_node": 314.4378,
        "meta_arg_of_pericenter": 291.7346,
        "meta_mean_anomaly": 68.3356,
        "meta_ephemeris_type": 0,
        "meta_classification_type": "U",
        "meta_norad_cat_id": 38338,
        "meta_element_set_no": 999,
        "meta_rev_at_epoch": 72600,
        "meta_bstar": 0.00013611,
        "meta_mean_motion_dot": 6.3e-06,
        "meta_mean_motion_ddot": 0,
        "tle_line1": "1 38338U 12025B   25359.74917096  .00000630  00000+0  13611-3 0  9995",
        "tle_line2": "2 38338  98.3341 314.4378 0004685 291.7346  68.3356 14.61729320726001"
      },
      "geometry": {
        "type": "Point",
        "coordinates": [
          -37.19143616403132,
          -44.119614383912854
        ]
      }
    },
    {
      "type": "Feature",
      "properties": {
        "norad_id": 38709,
        "name": "EXACTVIEW-1 (ADS-1B)",
        "group": "resource",
        "lat": 6.052920867089743,
        "lon": 107.65405639411824,
        "alt_km": 806.3510421017254,
        "timestamp": "2025-12-25T22:42:16.653301+00:00",
        "meta_object_name": "EXACTVIEW-1 (ADS-1B)",
        "meta_object_id": "2012-039C",
        "meta_epoch": "2025-12-25T05:49:24.235104",
        "meta_mean_motion": 14.24912861,
        "meta_eccentricity": 0.0010131,
        "meta_inclination": 98.9637,
        "meta_ra_of_asc_node": 107.8951,
        "meta_arg_of_pericenter": 316.6255,
        "meta_mean_anomaly": 43.4125,
        "meta_ephemeris_type": 0,
        "meta_classification_type": "U",
        "meta_norad_cat_id": 38709,
        "meta_element_set_no": 999,
        "meta_rev_at_epoch": 69793,
        "meta_bstar": 8.9782e-05,
        "meta_mean_motion_dot": 1.63e-06,
        "meta_mean_motion_ddot": 0,
        "tle_line1": "1 38709U 12039C   25359.24264161  .00000163  00000+0  89782-4 0  9999",
        "tle_line2": "2 38709  98.9637 107.8951 0010131 316.6255  43.4125 14.24912861697937"
      },
      "geometry": {
        "type": "Point",
        "coordinates": [
          107.65405639411824,
          6.052920867089743
        ]
      }
    }
  ]
}